start=new Date('2022-02-04T00:00:00.000Z').valueOf();
sats=[{"OBJECT_ID":"2021-038AA","ECCENTRICITY":"0.00018440","REV_AT_EPOCH":"4187","SEMIMAJOR_AXIS":"6925.336","MEAN_ELEMENT_THEORY":"SGP4","TIME_SYSTEM":"UTC","MEAN_MOTION_DOT":"0.00000157","COUNTRY_CODE":"US","ELEMENT_SET_NO":"999","TLE_LINE1":"1 48377U 21038AA  22034.94368013  .00000157  00000-0  29416-4 0  9997","EPOCH":"2022-02-03T22:38:53.963232","MEAN_MOTION":"15.06404171","APOAPSIS":"548.478","CLASSIFICATION_TYPE":"U","GP_ID":"195260689","REF_FRAME":"TEME","PERIOD":"95.592","BSTAR":"0.00002941600000","OBJECT_NAME":"STARLINK-2499","EPHEMERIS_TYPE":"0","NORAD_CAT_ID":"48377","OBJECT_TYPE":"PAYLOAD","MEAN_MOTION_DDOT":"0.0000000000000","ARG_OF_PERICENTER":"77.9014","RA_OF_ASC_NODE":"221.7981","PERIAPSIS":"545.924","MEAN_ANOMALY":"282.2182","FILE":"3291273","SITE":"AFETR","RCS_SIZE":"LARGE","CENTER_NAME":"EARTH","TLE_LINE2":"2 48377  53.0548 221.7981 0001844  77.9014 282.2182 15.06404171 41875","LAUNCH_DATE":"2021-05-04","DECAY_DATE":null,"INCLINATION":"53.0548"},{"CENTER_NAME":"EARTH","RCS_SIZE":"LARGE","TLE_LINE2":"2 48378  53.0537 222.7134 0001789  75.5847 284.5340 15.06411012 41841","DECAY_DATE":null,"LAUNCH_DATE":"2021-05-04","INCLINATION":"53.0537","OBJECT_TYPE":"PAYLOAD","NORAD_CAT_ID":"48378","MEAN_MOTION_DDOT":"0.0000000000000","ARG_OF_PERICENTER":"75.5847","RA_OF_ASC_NODE":"222.7134","PERIAPSIS":"545.941","MEAN_ANOMALY":"284.5340","FILE":"3291273","SITE":"AFETR","GP_ID":"195260942","CLASSIFICATION_TYPE":"U","REF_FRAME":"TEME","PERIOD":"95.591","BSTAR":"0.00015133000000","OBJECT_NAME":"STARLINK-2526","EPHEMERIS_TYPE":"0","OBJECT_ID":"2021-038AB","ECCENTRICITY":"0.00017890","REV_AT_EPOCH":"4184","SEMIMAJOR_AXIS":"6925.315","MEAN_ELEMENT_THEORY":"SGP4","TIME_SYSTEM":"UTC","ELEMENT_SET_NO":"999","COUNTRY_CODE":"US","MEAN_MOTION_DOT":"0.00001974","TLE_LINE1":"1 48378U 21038AB  22034.74096646  .00001974  00000-0  15133-3 0  9994","EPOCH":"2022-02-03T17:46:59.502144","MEAN_MOTION":"15.06411012","APOAPSIS":"548.419"},{"MEAN_ANOMALY":"285.2347","SITE":"AFETR","FILE":"3291273","OBJECT_TYPE":"PAYLOAD","MEAN_MOTION_DDOT":"0.0000000000000","NORAD_CAT_ID":"48379","ARG_OF_PERICENTER":"74.8829","RA_OF_ASC_NODE":"221.8313","PERIAPSIS":"546.032","LAUNCH_DATE":"2021-05-04","DECAY_DATE":null,"INCLINATION":"53.0540","RCS_SIZE":"LARGE","CENTER_NAME":"EARTH","TLE_LINE2":"2 48379  53.0540 221.8313 0001696  74.8829 285.2347 15.06402175 41872","COUNTRY_CODE":"US","ELEMENT_SET_NO":"999","MEAN_MOTION_DOT":"-0.00000070","APOAPSIS":"548.381","TLE_LINE1":"1 48379U 21038AC  22034.93631248 -.00000070  00000-0  14230-4 0  9994","MEAN_MOTION":"15.06402175","EPOCH":"2022-02-03T22:28:17.398272","REV_AT_EPOCH":"4187","OBJECT_ID":"2021-038AC","ECCENTRICITY":"0.00016960","MEAN_ELEMENT_THEORY":"SGP4","TIME_SYSTEM":"UTC","SEMIMAJOR_AXIS":"6925.342","OBJECT_NAME":"STARLINK-2612","EPHEMERIS_TYPE":"0","CLASSIFICATION_TYPE":"U","GP_ID":"195259191","PERIOD":"95.592","BSTAR":"0.00001423000000","REF_FRAME":"TEME"},{"REF_FRAME":"TEME","BSTAR":"0.00012120000000","PERIOD":"95.592","GP_ID":"195234957","CLASSIFICATION_TYPE":"U","EPHEMERIS_TYPE":"0","OBJECT_NAME":"STARLINK-2614","SEMIMAJOR_AXIS":"6925.323","MEAN_ELEMENT_THEORY":"SGP4","TIME_SYSTEM":"UTC","OBJECT_ID":"2021-038AD","ECCENTRICITY":"0.00015670","REV_AT_EPOCH":"4181","EPOCH":"2022-02-03T13:30:49.914144","MEAN_MOTION":"15.06408452","TLE_LINE1":"1 48380U 21038AD  22034.56307771  .00001525  00000-0  12120-3 0  9996","APOAPSIS":"548.273","COUNTRY_CODE":"US","MEAN_MOTION_DOT":"0.00001525","ELEMENT_SET_NO":"999","TLE_LINE2":"2 48380  53.0551 223.5036 0001567  72.1754 287.9406 15.06408452 41815","CENTER_NAME":"EARTH","RCS_SIZE":"LARGE","INCLINATION":"53.0551","LAUNCH_DATE":"2021-05-04","DECAY_DATE":null,"PERIAPSIS":"546.102","RA_OF_ASC_NODE":"223.5036","NORAD_CAT_ID":"48380","OBJECT_TYPE":"PAYLOAD","MEAN_MOTION_DDOT":"0.0000000000000","ARG_OF_PERICENTER":"72.1754","FILE":"3291268","SITE":"AFETR","MEAN_ANOMALY":"287.9406"},{"OBJECT_TYPE":"PAYLOAD","NORAD_CAT_ID":"48381","MEAN_MOTION_DDOT":"0.0000000000000","ARG_OF_PERICENTER":"73.0288","RA_OF_ASC_NODE":"222.1479","PERIAPSIS":"545.803","MEAN_ANOMALY":"287.0920","FILE":"3291273","SITE":"AFETR","CENTER_NAME":"EARTH","RCS_SIZE":"LARGE","TLE_LINE2":"2 48381  53.0531 222.1479 0002002  73.0288 287.0920 15.06408003 41866","LAUNCH_DATE":"2021-05-04","DECAY_DATE":null,"INCLINATION":"53.0531","OBJECT_ID":"2021-038AE","ECCENTRICITY":"0.00020020","REV_AT_EPOCH":"4186","SEMIMAJOR_AXIS":"6925.324","MEAN_ELEMENT_THEORY":"SGP4","TIME_SYSTEM":"UTC","ELEMENT_SET_NO":"999","COUNTRY_CODE":"US","MEAN_MOTION_DOT":"0.00002077","TLE_LINE1":"1 48381U 21038AE  22034.86626891  .00002077  00000-0  15824-3 0  9994","MEAN_MOTION":"15.06408003","EPOCH":"2022-02-03T20:47:25.633824","APOAPSIS":"548.575","GP_ID":"195260190","CLASSIFICATION_TYPE":"U","REF_FRAME":"TEME","PERIOD":"95.592","BSTAR":"0.00015824000000","OBJECT_NAME":"STARLINK-2630","EPHEMERIS_TYPE":"0"},{"RCS_SIZE":"LARGE","CENTER_NAME":"EARTH","TLE_LINE2":"2 48382  53.0545 222.4572 0002080  75.3571 284.7648 15.06401367 41851","DECAY_DATE":null,"LAUNCH_DATE":"2021-05-04","INCLINATION":"53.0545","MEAN_MOTION_DDOT":"0.0000000000000","OBJECT_TYPE":"PAYLOAD","ARG_OF_PERICENTER":"75.3571","NORAD_CAT_ID":"48382","RA_OF_ASC_NODE":"222.4572","PERIAPSIS":"545.769","MEAN_ANOMALY":"284.7648","SITE":"AFETR","FILE":"3291273","GP_ID":"195260443","CLASSIFICATION_TYPE":"U","PERIOD":"95.592","BSTAR":"0.00012385000000","REF_FRAME":"TEME","OBJECT_NAME":"STARLINK-2585","EPHEMERIS_TYPE":"0","REV_AT_EPOCH":"4185","OBJECT_ID":"2021-038AF","ECCENTRICITY":"0.00020800","TIME_SYSTEM":"UTC","MEAN_ELEMENT_THEORY":"SGP4","SEMIMAJOR_AXIS":"6925.344","COUNTRY_CODE":"US","MEAN_MOTION_DOT":"0.00001564","ELEMENT_SET_NO":"999","APOAPSIS":"548.650","TLE_LINE1":"1 48382U 21038AF  22034.79624423  .00001564  00000-0  12385-3 0  9995","MEAN_MOTION":"15.06401367","EPOCH":"2022-02-03T19:06:35.501472"},{"PERIOD":"95.592","BSTAR":"0.00000530930000","REF_FRAME":"TEME","GP_ID":"195259691","CLASSIFICATION_TYPE":"U","EPHEMERIS_TYPE":"0","OBJECT_NAME":"STARLINK-2599","TIME_SYSTEM":"UTC","MEAN_ELEMENT_THEORY":"SGP4","SEMIMAJOR_AXIS":"6925.349","REV_AT_EPOCH":"4307","ECCENTRICITY":"0.00019610","OBJECT_ID":"2021-038AG","APOAPSIS":"548.572","TLE_LINE1":"1 48383U 21038AG  22034.79255358 -.00000203  00000-0  53093-5 0  9996","EPOCH":"2022-02-03T19:01:16.629312","MEAN_MOTION":"15.06399787","COUNTRY_CODE":"US","MEAN_MOTION_DOT":"-0.00000203","ELEMENT_SET_NO":"999","TLE_LINE2":"2 48383  53.0554 222.4593 0001961  73.3901 286.7304 15.06399787 43076","RCS_SIZE":"LARGE","CENTER_NAME":"EARTH","INCLINATION":"53.0554","LAUNCH_DATE":"2021-05-04","DECAY_DATE":null,"RA_OF_ASC_NODE":"222.4593","PERIAPSIS":"545.856","ARG_OF_PERICENTER":"73.3901","OBJECT_TYPE":"PAYLOAD","MEAN_MOTION_DDOT":"0.0000000000000","NORAD_CAT_ID":"48383","SITE":"AFETR","FILE":"3291273","MEAN_ANOMALY":"286.7304"},{"EPOCH":"2022-02-03T22:07:03.108864","MEAN_MOTION":"15.06398561","TLE_LINE1":"1 48384U 21038AH  22034.92156376  .00001761  00000-0  13711-3 0  9992","APOAPSIS":"548.505","ELEMENT_SET_NO":"999","COUNTRY_CODE":"US","MEAN_MOTION_DOT":"0.00001761","SEMIMAJOR_AXIS":"6925.353","MEAN_ELEMENT_THEORY":"SGP4","TIME_SYSTEM":"UTC","ECCENTRICITY":"0.00018580","OBJECT_ID":"2021-038AH","REV_AT_EPOCH":"4309","EPHEMERIS_TYPE":"0","OBJECT_NAME":"STARLINK-2601","REF_FRAME":"TEME","BSTAR":"0.00013711000000","PERIOD":"95.592","GP_ID":"195259941","CLASSIFICATION_TYPE":"U","FILE":"3291273","SITE":"AFETR","MEAN_ANOMALY":"289.7389","PERIAPSIS":"545.931","RA_OF_ASC_NODE":"221.8863","MEAN_MOTION_DDOT":"0.0000000000000","OBJECT_TYPE":"PAYLOAD","NORAD_CAT_ID":"48384","ARG_OF_PERICENTER":"70.3800","INCLINATION":"53.0548","DECAY_DATE":null,"LAUNCH_DATE":"2021-05-04","TLE_LINE2":"2 48384  53.0548 221.8863 0001858  70.3800 289.7389 15.06398561 43090","RCS_SIZE":"LARGE","CENTER_NAME":"EARTH"},{"FILE":"3291273","SITE":"AFETR","MEAN_ANOMALY":"287.3350","RA_OF_ASC_NODE":"222.1980","PERIAPSIS":"545.907","MEAN_MOTION_DDOT":"0.0000000000000","OBJECT_TYPE":"PAYLOAD","NORAD_CAT_ID":"48385","ARG_OF_PERICENTER":"72.7841","INCLINATION":"53.0529","DECAY_DATE":null,"LAUNCH_DATE":"2021-05-04","TLE_LINE2":"2 48385  53.0529 222.1980 0001843  72.7841 287.3350 15.06409782 43088","CENTER_NAME":"EARTH","RCS_SIZE":"LARGE","TLE_LINE1":"1 48385U 21038AJ  22034.85154739  .00005176  00000-0  36604-3 0  9996","EPOCH":"2022-02-03T20:26:13.694496","MEAN_MOTION":"15.06409782","APOAPSIS":"548.460","COUNTRY_CODE":"US","ELEMENT_SET_NO":"999","MEAN_MOTION_DOT":"0.00005176","SEMIMAJOR_AXIS":"6925.319","TIME_SYSTEM":"UTC","MEAN_ELEMENT_THEORY":"SGP4","ECCENTRICITY":"0.00018430","OBJECT_ID":"2021-038AJ","REV_AT_EPOCH":"4308","EPHEMERIS_TYPE":"0","OBJECT_NAME":"STARLINK-2598","REF_FRAME":"TEME","PERIOD":"95.592","BSTAR":"0.00036604000000","CLASSIFICATION_TYPE":"U","GP_ID":"195260690"},{"REV_AT_EPOCH":"4193","OBJECT_ID":"2021-038AK","ECCENTRICITY":"0.00018530","TIME_SYSTEM":"UTC","MEAN_ELEMENT_THEORY":"SGP4","SEMIMAJOR_AXIS":"6925.338","ELEMENT_SET_NO":"999","COUNTRY_CODE":"US","MEAN_MOTION_DOT":"0.00001347","APOAPSIS":"548.486","MEAN_MOTION":"15.06403483","EPOCH":"2022-02-03T21:42:28.071648","TLE_LINE1":"1 48386U 21038AK  22034.90449157  .00001347  00000-0  10934-3 0  9998","CLASSIFICATION_TYPE":"U","GP_ID":"195260943","BSTAR":"0.00010934000000","PERIOD":"95.592","REF_FRAME":"TEME","OBJECT_NAME":"STARLINK-2606","EPHEMERIS_TYPE":"0","NORAD_CAT_ID":"48386","OBJECT_TYPE":"PAYLOAD","MEAN_MOTION_DDOT":"0.0000000000000","ARG_OF_PERICENTER":"74.9467","PERIAPSIS":"545.920","RA_OF_ASC_NODE":"216.9779","MEAN_ANOMALY":"285.1727","SITE":"AFETR","FILE":"3291273","CENTER_NAME":"EARTH","RCS_SIZE":"LARGE","TLE_LINE2":"2 48386  53.0537 216.9779 0001853  74.9467 285.1727 15.06403483 41932","DECAY_DATE":null,"LAUNCH_DATE":"2021-05-04","INCLINATION":"53.0537"}];
